O3B MPOWER F1           
1 54755U 22174A   24055.83194278 -.00000025  00000+0  00000+0 0  9996
2 54755   0.0632   7.7939 0006410 336.5502  66.6543  5.00118526 23169
